{
    "links": {
        "self": "http://www.neowsapp.com/rest/v1/neo/3550231?api_key=iIulBulltgU6a56xZRHN4H3l9WmuAYTsLGpBGhQ2"
    },
    "id": "3550231",
    "neo_reference_id": "3550231",
    "name": "(2010 VY)",
    "designation": "2010 VY",
    "nasa_jpl_url": "http://ssd.jpl.nasa.gov/sbdb.cgi?sstr=3550231",
    "absolute_magnitude_h": 24.9,
    "estimated_diameter": {
        "kilometers": {
            "estimated_diameter_min": 0.0278326768,
            "estimated_diameter_max": 0.0622357573
        },
        "meters": {
            "estimated_diameter_min": 27.8326768072,
            "estimated_diameter_max": 62.2357573367
        },
        "miles": {
            "estimated_diameter_min": 0.0172944182,
            "estimated_diameter_max": 0.0386714948
        },
        "feet": {
            "estimated_diameter_min": 91.3145593761,
            "estimated_diameter_max": 204.1855621004
        }
    },
    "is_potentially_hazardous_asteroid": false,
    "close_approach_data": [
        {
            "close_approach_date": "2010-10-19",
            "close_approach_date_full": "2010-Oct-19 02:54",
            "epoch_date_close_approach": 1287456840000,
            "relative_velocity": {
                "kilometers_per_second": "13.3409799",
                "kilometers_per_hour": "48027.5276401472",
                "miles_per_hour": "29842.4379384015"
            },
            "miss_distance": {
                "astronomical": "0.0404365848",
                "lunar": "15.7298314872",
                "kilometers": "6049226.956154376",
                "miles": "3758815.3319713488"
            },
            "orbiting_body": "Earth"
        }
    ],
    "orbital_data": {
        "orbit_id": "8",
        "orbit_determination_date": "2017-04-06 08:55:58",
        "first_observation_date": "2010-11-02",
        "last_observation_date": "2010-11-10",
        "data_arc_in_days": 8,
        "observations_used": 30,
        "orbit_uncertainty": "9",
        "minimum_orbit_intersection": ".0360178",
        "jupiter_tisserand_invariant": "3.237",
        "epoch_osculation": "2455504.5",
        "eccentricity": ".6222943532131936",
        "semi_major_axis": "2.384770022200135",
        "inclination": "5.168306003705837",
        "ascending_node_longitude": "46.02024987698537",
        "orbital_period": "1345.14215305027",
        "perihelion_distance": ".9007411036728887",
        "perihelion_argument": "293.9540725509085",
        "aphelion_distance": "3.868798940727381",
        "perihelion_time": "2455455.831470599673",
        "mean_anomaly": "13.02514425288622",
        "mean_motion": ".2676297067812923",
        "equinox": "J2000",
        "orbit_class": {
            "orbit_class_type": "APO",
            "orbit_class_description": "Near-Earth asteroid orbits which cross the Earth’s orbit similar to that of 1862 Apollo",
            "orbit_class_range": "a (semi-major axis) > 1.0 AU; q (perihelion) < 1.017 AU"
        }
    },
    "is_sentry_object": false
}